{
"type": "FeatureCollection",
"crs": { "type": "name", "properties": { "name": "urn:ogc:def:crs:OGC:1.3:CRS84" } },
                                                                                
"features": [
{ "type": "Feature", "properties": { "NAME": "Perona do Paseo da Ferradura", "TEL": 536725.942570, "URL": "Santiago de Compostela", "ADRESS1": "Paseo da Ferradura", "ADDRESS2": 22, "CITY": "Santiago de Compostela", "ZIP": 5 }, "geometry": { "type": "Point", "coordinates": [ -8.5503105705673, 42.877939873885715 ] } },
{ "type": "Feature", "properties": { "NAME": "Pradaio da Igrexa de Vilarpandín", "TEL": 663112.998070, "URL": "Vilarpandín (Santo Estevo)", "ADRESS1": "Vilarpandín", "ADDRESS2": 24, "CITY": "Navia de Suarna", "ZIP": 18 }, "geometry": { "type": "Point", "coordinates": [ -7.000456676969931, 42.950377274844577 ] } },
{ "type": "Feature", "properties": { "NAME": "Pravia de Vilalba", "TEL": 606919.053610, "URL": "Villalba (Santa María)", "ADRESS1": "Praza Suso Gayoso", "ADDRESS2": 11, "CITY": "Vilalba", "ZIP": 12 }, "geometry": { "type": "Point", "coordinates": [ -7.681863716134072, 43.297978488094785 ] } },
{ "type": "Feature", "properties": { "NAME": "Castiñeiro das Indias do Xardín Artístico de Padrón", "TEL": 527976.888040, "URL": "Padrón (Santiago)", "ADRESS1": "Xardín Artístico de Padrón", "ADDRESS2": 31, "CITY": "Padrón", "ZIP": 17 }, "geometry": { "type": "Point", "coordinates": [ -8.65820604948949, 42.738583948550243 ] } },
{ "type": "Feature", "properties": { "NAME": "Ameneiro do Pazo de Maside", "TEL": 613608.225150, "URL": "Ferreira de Pantón (Santa María)", "ADRESS1": "Pazo de Maside", "ADDRESS2": 27, "CITY": "Pantón", "ZIP": 15 }, "geometry": { "type": "Point", "coordinates": [ -7.61729506454379, 42.50236003697183 ] } },
{ "type": "Feature", "properties": { "NAME": "Araucaria do Brasildo Parque de Caldas de Reis", "TEL": 529511.859000, "URL": "Caldas de Reis (San Tomé e Santa María)", "ADRESS1": "Parque de Caldas", "ADDRESS2": 32, "CITY": "Caldas de Reis", "ZIP": 15 }, "geometry": { "type": "Point", "coordinates": [ -8.64023237110947, 42.60365076248474 ] } },
{ "type": "Feature", "properties": { "NAME": "Araucaria araucana do Castelo de Soutomaior", "TEL": 535659.784870, "URL": "Soutomaior (San Salvador)", "ADRESS1": "Castelo de Soutomaior", "ADDRESS2": 27, "CITY": "Soutomaior", "ZIP": 7 }, "geometry": { "type": "Point", "coordinates": [ -8.56717718717408, 42.329651945299787 ] } },
{ "type": "Feature", "properties": { "NAME": "Araucaria excelsa da Casa de Tenreiro", "TEL": 567959.558270, "URL": "Pontedeume (Santiago)", "ADRESS1": "Casa Tenreiro", "ADDRESS2": 31, "CITY": "Pontedeume", "ZIP": 16 }, "geometry": { "type": "Point", "coordinates": [ -8.160710541946504, 43.403804252643248 ] } },
{ "type": "Feature", "properties": { "NAME": "Érbedo Do Pazo de Mariñán", "TEL": 563536.591400, "URL": "Bergondo (San Salvador)", "ADRESS1": "Pazo de Mariñán", "ADDRESS2": 11, "CITY": "Bergondo", "ZIP": 5 }, "geometry": { "type": "Point", "coordinates": [ -8.216456159006162, 43.316611737822292 ] } },
{ "type": "Feature", "properties": { "NAME": "Calocedro do Pazo de Torrecedeira", "TEL": 530644.707580, "URL": "Cedeira (Santo André)", "ADRESS1": "Pazo de Torrecedeira", "ADDRESS2": 35, "CITY": "Redondela", "ZIP": 13 }, "geometry": { "type": "Point", "coordinates": [ -8.628345205984475, 42.279125156671498 ] } },
{ "type": "Feature", "properties": { "NAME": "Camelia \"Pantalóns\" do Pazo de Lens", "TEL": 525717.983860, "URL": "Lens (San Paio)", "ADRESS1": "Pazo de Lens-Ames", "ADDRESS2": 12, "CITY": "Ames", "ZIP": 12 }, "geometry": { "type": "Point", "coordinates": [ -8.684903163146105, 42.916018925075804 ] } },
{ "type": "Feature", "properties": { "NAME": "Camelia do Pazo de Santa Cruz", "TEL": 546998.172000, "URL": "Santa Cruz de Ribadulla (Santa Cruz)", "ADRESS1": "Pazo de Santa Cruz", "ADDRESS2": 9, "CITY": "Vedra", "ZIP": 6 }, "geometry": { "type": "Point", "coordinates": [ -8.425531464458503, 42.770189599864587 ] } },
{ "type": "Feature", "properties": { "NAME": "Camelias do Pazo de Torres de Agrelo", "TEL": 532844.741180, "URL": "Cesantes (San Pedro)", "ADRESS1": "Pazo Torres de Agrelo", "ADDRESS2": 13, "CITY": "Redondela", "ZIP": 12 }, "geometry": { "type": "Point", "coordinates": [ -8.601582056605066, 42.292058443113305 ] } },
{ "type": "Feature", "properties": { "NAME": "Matusalén de Camelias do Pazo de Castrelos", "TEL": 522437.617930, "URL": "Castrelos (Santa María)", "ADRESS1": "Pazo de Castrelos", "ADDRESS2": 8, "CITY": "Vigo", "ZIP": 15 }, "geometry": { "type": "Point", "coordinates": [ -8.728163716145744, 42.21297419823793 ] } },
{ "type": "Feature", "properties": { "NAME": "Camelia reticulada do Pazo de Oca", "TEL": 549545.210440, "URL": "Oca (Santo Estevo)", "ADRESS1": "Pazo de Oca", "ADDRESS2": 11, "CITY": "A Estrada", "ZIP": 7 }, "geometry": { "type": "Point", "coordinates": [ -8.394636157635562, 42.745787350785236 ] } },
{ "type": "Feature", "properties": { "NAME": "Camelia Sasanqua do Pazo de Torres de Agrelo", "TEL": 532876.741310, "URL": "Cesantes (San Pedro)", "ADRESS1": "Pazo Torres de Agrelo", "ADDRESS2": 9, "CITY": "Redondela", "ZIP": 10 }, "geometry": { "type": "Point", "coordinates": [ -8.601199347447464, 42.291192510112388 ] } },
{ "type": "Feature", "properties": { "NAME": "Pacana de Illinois do Pazo de Mariñán", "TEL": 563536.591400, "URL": "Bergondo (San Salvador)", "ADRESS1": "Pazo de Mariñán", "ADDRESS2": 34, "CITY": "Bergondo", "ZIP": 10 }, "geometry": { "type": "Point", "coordinates": [ -8.216456159006162, 43.316611737822292 ] } },
{ "type": "Feature", "properties": { "NAME": "Castiñeiro da Capela", "TEL": 600818.074900, "URL": "Baamonde (Santiago)", "ADRESS1": "A Capela.", "ADDRESS2": 13, "CITY": "Begonte", "ZIP": 11 }, "geometry": { "type": "Point", "coordinates": [ -7.759599475205782, 43.173809364624802 ] } },
{ "type": "Feature", "properties": { "NAME": "Castiñeiro do Val da Fonte", "TEL": 648261.525280, "URL": "Meiraos (Santa María)", "ADRESS1": "O Val da Fonte", "ADDRESS2": 19, "CITY": "Folgoso do Caurel", "ZIP": 15 }, "geometry": { "type": "Point", "coordinates": [ -7.190985596057328, 42.66029502557172 ] } },
{ "type": "Feature", "properties": { "NAME": "Castiñeiro de Pumbariños. Souto de Rozabales", "TEL": 644486.364700, "URL": "Manzaneda (San Martiño)", "ADRESS1": "Souto de Rozabales", "ADDRESS2": 17, "CITY": "Manzaneda", "ZIP": 19 }, "geometry": { "type": "Point", "coordinates": [ -7.246913870660069, 42.307991988872232 ] } },
{ "type": "Feature", "properties": { "NAME": "Castiñeiro do Mola", "TEL": 662132.602690, "URL": "Chaguazoso (Santiago)", "ADRESS1": "Souto de Mola", "ADDRESS2": 22, "CITY": "A Mezquita", "ZIP": 18 }, "geometry": { "type": "Point", "coordinates": [ -7.043104338125658, 41.974859316535287 ] } },
{ "type": "Feature", "properties": { "NAME": "Castiñeiro da Ribeira", "TEL": 664043.607260, "URL": "Cádavos (Santa María Madanela)", "ADRESS1": "Souto da Ribeira", "ADDRESS2": 25, "CITY": "A Mezquita", "ZIP": 20 }, "geometry": { "type": "Point", "coordinates": [ -7.020196442072569, 41.96981028442633 ] } },
{ "type": "Feature", "properties": { "NAME": "Castiñeiro do Souto de A Ramigoa", "TEL": 605252.130400, "URL": "Armariz (San Cristovo)", "ADRESS1": "Souto de A Ramigoa", "ADDRESS2": 15, "CITY": "Nogueira de Ramuín", "ZIP": 14 }, "geometry": { "type": "Point", "coordinates": [ -7.721553905491992, 42.376578547358015 ] } },
{ "type": "Feature", "properties": { "NAME": "Castiñeiro da Regadiña", "TEL": 645476.363340, "URL": "Mendoia (Nosa Señora da Concepción)", "ADRESS1": "A Regadiña", "ADDRESS2": 8, "CITY": "A Pobra de Trives", "ZIP": 9 }, "geometry": { "type": "Point", "coordinates": [ -7.234245484697357, 42.331482988655729 ] } },
{ "type": "Feature", "properties": { "NAME": "Castiñeiros de Peninvello", "TEL": 599260.058070, "URL": "Ganade (San Bartolomeu)", "ADRESS1": "Finca de A Cerca", "ADDRESS2": 18, "CITY": "Xinzo de Limia", "ZIP": 17 }, "geometry": { "type": "Point", "coordinates": [ -7.80088993742079, 42.030957990107346 ] } },
{ "type": "Feature", "properties": { "NAME": "Casuarina da Alameda da Praza de Compostela", "TEL": 522785.625490, "URL": "Vigo", "ADRESS1": "Praza de Compostela", "ADDRESS2": 17, "CITY": "Vigo", "ZIP": 15 }, "geometry": { "type": "Point", "coordinates": [ -8.723832984175287, 42.239262594103131 ] } },
{ "type": "Feature", "properties": { "NAME": "Cedros do Himalaia dos Xardíns de Vincenti", "TEL": 529010.783400, "URL": "Pontevedra", "ADRESS1": "Xardíns de Vicenti", "ADDRESS2": 26, "CITY": "Pontevedra", "ZIP": 22 }, "geometry": { "type": "Point", "coordinates": [ -8.647321429009878, 42.429498456685202 ] } },
{ "type": "Feature", "properties": { "NAME": "Cedro do Libano do Pazo de Lourizán", "TEL": 527561.757140, "URL": "Lourizán (Santo André)", "ADRESS1": "Pazo de Lourizán.", "ADDRESS2": 32, "CITY": "Pontevedra", "ZIP": 27 }, "geometry": { "type": "Point", "coordinates": [ -8.665043189310333, 42.409540129964483 ] } },
{ "type": "Feature", "properties": { "NAME": "Coroa de Cristo do Xardín Histórico de Padrón", "TEL": 527976.888040, "URL": "Padrón (Santiago)", "ADRESS1": "Xardín artístico de Padrón", "ADDRESS2": 1, "CITY": "Padrón", "ZIP": 1 }, "geometry": { "type": "Point", "coordinates": [ -8.65820604948949, 42.738583948550243 ] } },
{ "type": "Feature", "properties": { "NAME": "Alcanforeiros do Pazo de Rubiáns", "TEL": 521890.788550, "URL": "O Hospital (San Pedro Fiz)", "ADRESS1": "Pazo de Rubiáns", "ADDRESS2": 19, "CITY": "Vilagarcía de Arousa", "ZIP": 23 }, "geometry": { "type": "Point", "coordinates": [ -8.733244629669306, 42.578608031324677 ] } },
{ "type": "Feature", "properties": { "NAME": "Laranxo Obsceno do Pazo de Brandariz", "TEL": 592513.911090, "URL": "Soutomaior (San Salvador)", "ADRESS1": "Pazo de Brandaliz", "ADDRESS2": 6, "CITY": "Ortigueira", "ZIP": 7 }, "geometry": { "type": "Point", "coordinates": [ -7.85205677247826, 43.689710353626928 ] } },
{ "type": "Feature", "properties": { "NAME": "Criptomeria do Pazo de Santa Cruz", "TEL": 546998.172000, "URL": "Rubiáns (Santa María)", "ADRESS1": "Pazo de Santa Cruz", "ADDRESS2": 34, "CITY": "Vedra", "ZIP": 11 }, "geometry": { "type": "Point", "coordinates": [ -8.425531464458503, 42.770189599864587 ] } },
{ "type": "Feature", "properties": { "NAME": "Criptomeria do Castelo de Soutomaior", "TEL": 535654.762270, "URL": "Luama (San Martiño)", "ADRESS1": "Castelo de Soutomaior", "ADDRESS2": 29, "CITY": "Soutomaior", "ZIP": 11 }, "geometry": { "type": "Point", "coordinates": [ -8.567239858089378, 42.32940265812703 ] } },
{ "type": "Feature", "properties": { "NAME": "Criptomeria Elegante do Pazo de Oca", "TEL": 549503.210030, "URL": "Santa Cruz de Ribadulla (Santa Cruz)", "ADRESS1": "Pazo de Oca", "ADDRESS2": 30, "CITY": "A Estrada", "ZIP": 14 }, "geometry": { "type": "Point", "coordinates": [ -8.395148957893143, 42.745826084188238 ] } },
{ "type": "Feature", "properties": { "NAME": "Cunninghamia do Pazo de Gondomar", "TEL": 519725.597860, "URL": "Soutomaior (San Salvador)", "ADRESS1": "Pazo de Gondomar", "ADDRESS2": 40, "CITY": "Gondomar", "ZIP": 14 }, "geometry": { "type": "Point", "coordinates": [ -8.761421105332838, 42.106383943902728 ] } },
{ "type": "Feature", "properties": { "NAME": "Cunninghamia do Pazo Xardín de Caldas de Reis", "TEL": 529511.859000, "URL": "Riobó (San Martiño)", "ADRESS1": "Parque de Caldas", "ADDRESS2": 31, "CITY": "Caldas de Reis", "ZIP": 12 }, "geometry": { "type": "Point", "coordinates": [ -8.64023237110947, 42.60365076248474 ] } },
{ "type": "Feature", "properties": { "NAME": "Ciprés de California da Misericordia", "TEL": 612725.983320, "URL": "Gondomar (San Bieito)", "ADRESS1": "Misericordia", "ADDRESS2": 31, "CITY": "Viveiro", "ZIP": 21 }, "geometry": { "type": "Point", "coordinates": [ -7.601837422766507, 43.664888374559894 ] } },
{ "type": "Feature", "properties": { "NAME": "Ciprés de California do Pazo de Quintáns", "TEL": 523334.788160, "URL": "Caldas de Reis (San Tomé e Santa María)", "ADRESS1": "Pazo de Quintáns", "ADDRESS2": 33, "CITY": "Meis", "ZIP": 24 }, "geometry": { "type": "Point", "coordinates": [ -8.715837233770268, 42.53701316056749 ] } },
{ "type": "Feature", "properties": { "NAME": "Ciprés Mediterráneo da Capela do Salvador", "TEL": 637131.478870, "URL": "Vieiro (San Cibrao)", "ADRESS1": "Mosteiro de Samos", "ADDRESS2": 26, "CITY": "Samos", "ZIP": 5 }, "geometry": { "type": "Point", "coordinates": [ -7.324827241456235, 42.733177178258188 ] } },
{ "type": "Feature", "properties": { "NAME": "Camecíparis de Lawson da Casa da Puebla", "TEL": 635980.438030, "URL": "Paradela (Santa María)", "ADRESS1": "Casa da Puebla de O Incio", "ADDRESS2": 30, "CITY": "O Incio", "ZIP": 13 }, "geometry": { "type": "Point", "coordinates": [ -7.340968103267611, 42.655092212493784 ] } },
{ "type": "Feature", "properties": { "NAME": "Camecíparis de Lawson do Castelo de Soutomaior", "TEL": 535700.785280, "URL": "Samos (Santa Xertrude)", "ADRESS1": "Castelo de Soutomaior", "ADDRESS2": 32, "CITY": "Soutomaior", "ZIP": 13 }, "geometry": { "type": "Point", "coordinates": [ -8.566680792286066, 42.329469946909924 ] } },
{ "type": "Feature", "properties": { "NAME": "Eucaliptos do Pazo de Mariñán", "TEL": 563536.591400, "URL": "Bergondo (San Salvador)", "ADRESS1": "Pazo de Láncara o Mariñán", "ADDRESS2": 46, "CITY": "Bergondo", "ZIP": 33 }, "geometry": { "type": "Point", "coordinates": [ -8.216456159006162, 43.316611737822292 ] } },
{ "type": "Feature", "properties": { "NAME": "Eucalipto da Casa de Reimunde", "TEL": 636409.085940, "URL": "Vilaronte (San Xoán)", "ADRESS1": "Casa de Reimunde", "ADDRESS2": 46, "CITY": "Foz", "ZIP": 33 }, "geometry": { "type": "Point", "coordinates": [ -7.311436178112039, 43.545590240930537 ] } },
{ "type": "Feature", "properties": { "NAME": "O Avó, Souto da Retorta", "TEL": 613130.966540, "URL": "Chavín (Santa María)", "ADRESS1": "Souto da Retorta", "ADDRESS2": 71, "CITY": "Viveiro", "ZIP": 27 }, "geometry": { "type": "Point", "coordinates": [ -7.597980074880418, 43.614787934898438 ] } },
{ "type": "Feature", "properties": { "NAME": "Eucaliptos do Paseo da Ferradura", "TEL": 536732.943520, "URL": "Santiago de Compostela", "ADRESS1": "Paseo da Ferradura", "ADDRESS2": 40, "CITY": "Santiago de Compostela", "ZIP": 23 }, "geometry": { "type": "Point", "coordinates": [ -8.550231521337516, 42.877021015824255 ] } },
{ "type": "Feature", "properties": { "NAME": "Eucalitos do Pazo de Castrelos", "TEL": 522373.617350, "URL": "Castrelos (Santa María)", "ADRESS1": "Pazo de Castrelos", "ADDRESS2": 54, "CITY": "Vigo", "ZIP": 23 }, "geometry": { "type": "Point", "coordinates": [ -8.728949792940684, 42.210472268078924 ] } },
{ "type": "Feature", "properties": { "NAME": "Eucalipto do Maná da Casa de Ordax", "TEL": 625837.391310, "URL": "Loentia (Santo Estevo)", "ADRESS1": "Casa de Ordax", "ADDRESS2": 45, "CITY": "Castro de Rei", "ZIP": 35 }, "geometry": { "type": "Point", "coordinates": [ -7.452948103118921, 43.127618433425333 ] } },
{ "type": "Feature", "properties": { "NAME": "Faias do Pazo de Castrelos", "TEL": 522403.617280, "URL": "Castrelos (Santa María)", "ADRESS1": "Pazo de Castrelos", "ADDRESS2": 46, "CITY": "Vigo", "ZIP": 22 }, "geometry": { "type": "Point", "coordinates": [ -8.72856614974282, 42.215190735181274 ] } },
{ "type": "Feature", "properties": { "NAME": "Figueira dos Mecos", "TEL": 509944.709520, "URL": "San Vicente do Grove (San Vicente)", "ADRESS1": "Monte Siradella", "ADDRESS2": 5, "CITY": "O Grove", "ZIP": 12 }, "geometry": { "type": "Point", "coordinates": [ -8.879027316310161, 42.469361538108004 ] } },
{ "type": "Feature", "properties": { "NAME": "Figueira de Rosalia", "TEL": 528473.895240, "URL": "Iria Flavia (Santa María)", "ADRESS1": "Casa-Museo Rosalía de Castro", "ADDRESS2": 6, "CITY": "Padrón", "ZIP": 6 }, "geometry": { "type": "Point", "coordinates": [ -8.652135071004617, 42.738412574276609 ] } },
{ "type": "Feature", "properties": { "NAME": "Freixo de folla estreita de Montepando", "TEL": 624667.283380, "URL": "As Nocedas (San Estevo)", "ADRESS1": "O Val", "ADDRESS2": 21, "CITY": "Monforte de Lemos", "ZIP": 19 }, "geometry": { "type": "Point", "coordinates": [ -7.482943781714307, 42.492276096732894 ] } },
{ "type": "Feature", "properties": { "NAME": "Freixo de Porta", "TEL": 579837.045250, "URL": "A Porta (San Pedro)", "ADRESS1": "Pista a Casa do Galo", "ADDRESS2": 31, "CITY": "Sobrado dos Monxes", "ZIP": 11 }, "geometry": { "type": "Point", "coordinates": [ -8.019814131995435, 43.043637946955172 ] } },
{ "type": "Feature", "properties": { "NAME": "Xinkgo do Pazo de Fonseca", "TEL": 537071.945970, "URL": "Santiago de Compostela", "ADRESS1": "Xardín del Pazo de Fonseca", "ADDRESS2": 27, "CITY": "Santiago de Compostela", "ZIP": 13 }, "geometry": { "type": "Point", "coordinates": [ -8.546063908644886, 42.879309947525492 ] } },
{ "type": "Feature", "properties": { "NAME": "Acivro do Pazo de Casanova", "TEL": 553236.259000, "URL": "O Pino (San Vicenzo)", "ADRESS1": "Pazo de Casanova", "ADDRESS2": 18, "CITY": "O Pino", "ZIP": 10 }, "geometry": { "type": "Point", "coordinates": [ -8.34754783583486, 42.935173560142552 ] } },
{ "type": "Feature", "properties": { "NAME": "Coqueiro de Chile do Pazo de Meirás", "TEL": 557037.582780, "URL": "Meirás (San Martiño)", "ADRESS1": "Pazo de Meirás", "ADDRESS2": 18, "CITY": "Sada", "ZIP": 10 }, "geometry": { "type": "Point", "coordinates": [ -8.296126170817882, 43.357884460527799 ] } },
{ "type": "Feature", "properties": { "NAME": "Tulipeiro de Virxinia do Pazo de Santa Cruz", "TEL": 546998.172000, "URL": "Santa Cruz de Ribadulla (Santa Cruz)", "ADRESS1": "Pazo de Ortigueira", "ADDRESS2": 31, "CITY": "Vedra", "ZIP": 27 }, "geometry": { "type": "Point", "coordinates": [ -8.425531464458503, 42.770189599864587 ] } },
{ "type": "Feature", "properties": { "NAME": "Tulipeiro de Virxinia do Pazo de Castrelos", "TEL": 522397.617540, "URL": "Castrelos (Santa María)", "ADRESS1": "Pazo de Castrelos", "ADDRESS2": 33, "CITY": "Vigo", "ZIP": 25 }, "geometry": { "type": "Point", "coordinates": [ -8.728653797854555, 42.211696444318108 ] } },
{ "type": "Feature", "properties": { "NAME": "Magnolia grandiflora de Santa Rita", "TEL": 568548.512390, "URL": "Xubia (Santa Rita)", "ADRESS1": "Cuartel vello Guardia Civil", "ADDRESS2": 16, "CITY": "Narón", "ZIP": 21 }, "geometry": { "type": "Point", "coordinates": [ -8.151861106629825, 43.516646246955425 ] } },
{ "type": "Feature", "properties": { "NAME": "Magnolia grandiflora do Pazo de Rubiáns", "TEL": 521870.788330, "URL": "Rubiáns (Santa María)", "ADRESS1": "Pazo de Rubiáns", "ADDRESS2": 19, "CITY": "Vilagarcía de Arousa", "ZIP": 19 }, "geometry": { "type": "Point", "coordinates": [ -8.733489878541793, 42.578248370184937 ] } },
{ "type": "Feature", "properties": { "NAME": "Metasecuoia do Pazo de Lourizán", "TEL": 527577.756770, "URL": "Lourizán (Santo André)", "ADRESS1": "Pazo de Lourizán", "ADDRESS2": 33, "CITY": "Pontevedra", "ZIP": 12 }, "geometry": { "type": "Point", "coordinates": [ -8.664852585174915, 42.408819084338489 ] } },
{ "type": "Feature", "properties": { "NAME": "Metrosideros excelsa do Xardín da Torre de Andrade", "TEL": 567022.554040, "URL": "Pontedeume (Santiago)", "ADRESS1": "Xardín da Torre de Andrade", "ADDRESS2": 25, "CITY": "Pontedeume", "ZIP": 16 }, "geometry": { "type": "Point", "coordinates": [ -8.172227864500336, 43.40780514214697 ] } },
{ "type": "Feature", "properties": { "NAME": "Metrosideros excelsa do Xardín da Policía da A Coruña", "TEL": 548854.641250, "URL": "A Coruña", "ADRESS1": "Xardín del Antigo Hospital", "ADDRESS2": 20, "CITY": "A Coruña", "ZIP": 24 }, "geometry": { "type": "Point", "coordinates": [ -8.396925609665038, 43.37627108860471 ] } },
{ "type": "Feature", "properties": { "NAME": "Oliveira do Paseo de Alfonso XII", "TEL": 522433.620970, "URL": "Vigo", "ADRESS1": "Paseo de Alfonso XII", "ADDRESS2": 16, "CITY": "Vigo", "ZIP": 13 }, "geometry": { "type": "Point", "coordinates": [ -8.728109674444447, 42.236859101520594 ] } },
{ "type": "Feature", "properties": { "NAME": "Oliveiras do Cemiterio de Adina", "TEL": 528178.890830, "URL": "Padrón (Santiago)", "ADRESS1": "Cemiterio de Adina", "ADDRESS2": 10, "CITY": "Padrón", "ZIP": 10 }, "geometry": { "type": "Point", "coordinates": [ -8.655699557233197, 42.745564767602687 ] } },
{ "type": "Feature", "properties": { "NAME": "Palmeira datilera do Mosteiro de Herbón", "TEL": 530209.920170, "URL": "Herbón (Santa María)", "ADRESS1": "Mosteiro de Herbón", "ADDRESS2": 20, "CITY": "Padrón", "ZIP": 6 }, "geometry": { "type": "Point", "coordinates": [ -8.630963249313959, 42.732150462075658 ] } },
{ "type": "Feature", "properties": { "NAME": "Ombú do Centro Cultural de Santa Cruz", "TEL": 553274.603280, "URL": "Liáns (Santaia)", "ADRESS1": "Centro cultural Santa Cruz-Oleiros", "ADDRESS2": 13, "CITY": "Oleiros", "ZIP": 20 }, "geometry": { "type": "Point", "coordinates": [ -8.342680340494221, 43.347031597908327 ] } },
{ "type": "Feature", "properties": { "NAME": "Ombú do Pazo de Santa Cruz", "TEL": 546998.172000, "URL": "Santa Cruz de Ribadulla (Santa Cruz)", "ADRESS1": "Pazo de Ortigueira", "ADDRESS2": 10, "CITY": "Vedra", "ZIP": 16 }, "geometry": { "type": "Point", "coordinates": [ -8.425531464458503, 42.770189599864587 ] } },
{ "type": "Feature", "properties": { "NAME": "Piñeiro Bravo de Leiro", "TEL": 566324.571090, "URL": "Castro (Santa María)", "ADRESS1": "Leiro", "ADDRESS2": 36, "CITY": "Miño", "ZIP": 12 }, "geometry": { "type": "Point", "coordinates": [ -8.181382582921746, 43.368124813640335 ] } },
{ "type": "Feature", "properties": { "NAME": "Piñeiro insigne do Castelo de Santa Cruz", "TEL": 552677.606510, "URL": null, "ADRESS1": "Castillo de Santa Cruz", "ADDRESS2": 20, "CITY": "Oleiros", "ZIP": 24 }, "geometry": { "type": "Point", "coordinates": [ -8.350028714388696, 43.348676390277959 ] } },
{ "type": "Feature", "properties": { "NAME": "Plátano de sombra do Pazo de Dompiñor", "TEL": 634783.428430, "URL": "San Pedro do Incio (San Pedro)", "ADRESS1": "Pazo de Dompiñor", "ADDRESS2": 40, "CITY": "O Incio", "ZIP": 23 }, "geometry": { "type": "Point", "coordinates": [ -7.355727179946362, 42.649199401782298 ] } },
{ "type": "Feature", "properties": { "NAME": "Douglasias verdes do Pazo de Casanova", "TEL": 553236.006800, "URL": "O Pino (San Vicenzo)", "ADRESS1": "Pazo de Casanova", "ADDRESS2": 34, "CITY": "O Pino", "ZIP": 17 }, "geometry": { "type": "Point", "coordinates": [ -8.347540739359081, 42.936138505715739 ] } },
{ "type": "Feature", "properties": { "NAME": "Aciñeira de Cobas.", "TEL": 677799.767560, "URL": "Quindous (San Xusto)", "ADRESS1": "Finca próxima ó cemiterio", "ADDRESS2": 16, "CITY": "Rubiá", "ZIP": 24 }, "geometry": { "type": "Point", "coordinates": [ -6.83675146400431, 42.482266224390003 ] } },
{ "type": "Feature", "properties": { "NAME": "Carballo albar da Praza do Campo de Quindous", "TEL": 664095.963000, "URL": "Quindous (San Xusto)", "ADRESS1": "Quindous", "ADDRESS2": 20, "CITY": "Cervantes", "ZIP": 23 }, "geometry": { "type": "Point", "coordinates": [ -6.99117238137098, 42.865315676778003 ] } },
{ "type": "Feature", "properties": { "NAME": "Rebolo da Praza do Campo de Quindous", "TEL": 664101.963250, "URL": "San Martiño de Manzaneda (San Martiño)", "ADRESS1": "Quindous", "ADDRESS2": 17, "CITY": "Cervantes", "ZIP": 21 }, "geometry": { "type": "Point", "coordinates": [ -6.991092256991274, 42.865521385974368 ] } },
{ "type": "Feature", "properties": { "NAME": "Rebolo do Pazo da Pena", "TEL": 645241.374470, "URL": "Artes (San Xurxo)", "ADRESS1": "Pazo de a Pena", "ADDRESS2": 26, "CITY": "Manzaneda", "ZIP": 25 }, "geometry": { "type": "Point", "coordinates": [ -7.23788141526268, 42.303404614297769 ] } },
{ "type": "Feature", "properties": { "NAME": "Carballo de Pazo de Vilardefrancos", "TEL": 528874.727160, "URL": "Carballo (San Tomé)", "ADRESS1": "Pazo de Vilar de Arcos", "ADDRESS2": 21, "CITY": "Carballo", "ZIP": 27 }, "geometry": { "type": "Point", "coordinates": [ -8.644704049979694, 43.180411062607355 ] } },
{ "type": "Feature", "properties": { "NAME": "Carballo de Ramos", "TEL": 601293.301610, "URL": "Covelo (San Sebastián)", "ADRESS1": "Casa de Ramos", "ADDRESS2": 19, "CITY": "Taboada", "ZIP": 18 }, "geometry": { "type": "Point", "coordinates": [ -7.763002986294028, 42.713568335610141 ] } },
{ "type": "Feature", "properties": { "NAME": "Carballo de O Viño ou Carballo do Pelete", "TEL": 550449.981930, "URL": "Mourente (Santa María)", "ADRESS1": "Pelete", "ADDRESS2": 15, "CITY": "A Lama", "ZIP": 16 }, "geometry": { "type": "Point", "coordinates": [ -8.386631757100709, 42.435460661277006 ] } },
{ "type": "Feature", "properties": { "NAME": "Carballo da Capela de Santa Margarida", "TEL": 530725.803880, "URL": "Rairiz de Veiga (San Xoán)", "ADRESS1": "Capela de Santa Margarita", "ADDRESS2": 18, "CITY": "Pontevedra", "ZIP": 21 }, "geometry": { "type": "Point", "coordinates": [ -8.626424857131656, 42.437483632703774 ] } },
{ "type": "Feature", "properties": { "NAME": "Carballa da Rocha", "TEL": 596637.039680, "URL": "Santa Mariña do Castro (Santa Mariña)", "ADRESS1": "A Touza", "ADDRESS2": 32, "CITY": "Rairiz", "ZIP": 26 }, "geometry": { "type": "Point", "coordinates": [ -7.831858215222298, 42.070185385446351 ] } },
{ "type": "Feature", "properties": { "NAME": "Carballo do Pazo de Cartelos", "TEL": 593603.201390, "URL": "Carballedo (Santa María)", "ADRESS1": "Pazo de Cartelos", "ADDRESS2": 34, "CITY": "Carballedo", "ZIP": 21 }, "geometry": { "type": "Point", "coordinates": [ -7.859539061819119, 42.570003222378318 ] } },
{ "type": "Feature", "properties": { "NAME": "Carballo Grande de Bustelo de Abaixo", "TEL": 596781.182560, "URL": "Santa Baia de B£bal (Santa Baia)", "ADRESS1": "Campo da Fonte", "ADDRESS2": 21, "CITY": "Carballedo", "ZIP": 15 }, "geometry": { "type": "Point", "coordinates": [ -7.821650512434451, 42.52581608973459 ] } },
{ "type": "Feature", "properties": { "NAME": "Carballo da Casa do Herdeiro", "TEL": 596199.169360, "URL": "Santa Marta de Fixós (Santa Marta)", "ADRESS1": "Casa de Herdeiro", "ADDRESS2": 19, "CITY": "Carballedo", "ZIP": 19 }, "geometry": { "type": "Point", "coordinates": [ -7.829078665756307, 42.507502427235998 ] } },
{ "type": "Feature", "properties": { "NAME": "Carballos do Campo de Golf", "TEL": 618097.392330, "URL": "Cazás (San Xulián)", "ADRESS1": "Campo de golf-Lugo", "ADDRESS2": 18, "CITY": "Lugo", "ZIP": 22 }, "geometry": { "type": "Point", "coordinates": [ -7.552496349359225, 42.940996492094058 ] } },
{ "type": "Feature", "properties": { "NAME": "Carballo de Mede", "TEL": 598444.961270, "URL": "Buciños (San Miguel)", "ADRESS1": "Bosque de Mede", "ADDRESS2": 34, "CITY": "Xermade", "ZIP": 22 }, "geometry": { "type": "Point", "coordinates": [ -7.786348080985556, 43.297288556537154 ] } },
{ "type": "Feature", "properties": { "NAME": "Carballo da Casa Grande", "TEL": 593073.181310, "URL": "Pradeda (Santiago)", "ADRESS1": "Praza do Carballo", "ADDRESS2": 26, "CITY": "Carballedo", "ZIP": 30 }, "geometry": { "type": "Point", "coordinates": [ -7.866564932111899, 42.538615936765098 ] } },
{ "type": "Feature", "properties": { "NAME": "Carballo Grande do Mestre", "TEL": 597839.203610, "URL": "San Lourenzo de Abeleda (San Lourenzo)", "ADRESS1": "Ó borde da N-540", "ADDRESS2": 27, "CITY": "Carballedo", "ZIP": 22 }, "geometry": { "type": "Point", "coordinates": [ -7.808240446886832, 42.553604236549752 ] } },
{ "type": "Feature", "properties": { "NAME": "Carballo grande de Reboreda", "TEL": 593669.983010, "URL": "Santa Cruz de Ribadulla (Santa Cruz)", "ADRESS1": "Bosque de Carabeleira", "ADDRESS2": 28, "CITY": "Porqueira", "ZIP": 26 }, "geometry": { "type": "Point", "coordinates": [ -7.868767053913543, 42.011373422602674 ] } },
{ "type": "Feature", "properties": { "NAME": "Carballo fastixiado do Pazo de Santa Cruz", "TEL": 546998.172000, "URL": "Padrón (Santiago)", "ADRESS1": "Pazo de Santa Cruz", "ADDRESS2": 31, "CITY": "Vedra", "ZIP": 16 }, "geometry": { "type": "Point", "coordinates": [ -8.425531464458503, 42.770189599864587 ] } },
{ "type": "Feature", "properties": { "NAME": "Carballo fastixiado do Xardín Artístico de Padrón", "TEL": 527976.888040, "URL": "Covas (San Salvador)", "ADRESS1": "Xardín Artístico de Padrón", "ADDRESS2": 26, "CITY": "Padrón", "ZIP": 14 }, "geometry": { "type": "Point", "coordinates": [ -8.65820604948949, 42.738583948550243 ] } },
{ "type": "Feature", "properties": { "NAME": "Sobreira de Balboa", "TEL": 549173.202740, "URL": "Arnois (San Xiao)", "ADRESS1": "Os Hórreos", "ADDRESS2": 20, "CITY": "A Estrada", "ZIP": 17 }, "geometry": { "type": "Point", "coordinates": [ -8.399068603729761, 42.757472940270468 ] } },
{ "type": "Feature", "properties": { "NAME": "Sobreira do Pazo de Valiñas", "TEL": 545488.152440, "URL": "Lagartóns (Santo Estevo)", "ADRESS1": "Pazo de Valiñas", "ADDRESS2": 21, "CITY": "A Estrada", "ZIP": 21 }, "geometry": { "type": "Point", "coordinates": [ -8.444682443862229, 42.692475893227318 ] } },
{ "type": "Feature", "properties": { "NAME": "Sobreira do Cristo de Arriba", "TEL": 533529.747190, "URL": "Reboreda (Santa María)", "ADRESS1": "Praza pública", "ADDRESS2": 18, "CITY": "Redondela", "ZIP": 20 }, "geometry": { "type": "Point", "coordinates": [ -8.593332279482999, 42.282798050117108 ] } },
{ "type": "Feature", "properties": { "NAME": "Sobreira da Casa do Tristo", "TEL": 632235.317940, "URL": "Liñares (San Cosme)", "ADRESS1": "Casa de O Tristo", "ADDRESS2": 15, "CITY": "A Pobra de Brollón", "ZIP": 15 }, "geometry": { "type": "Point", "coordinates": [ -7.390666859675596, 42.499482720194152 ] } },
{ "type": "Feature", "properties": { "NAME": "Secuoias vermellas do Xardín Artístico de Padrón", "TEL": 527976.888040, "URL": "Padrón (Santiago)", "ADRESS1": "Xardín Artístico de Padrón", "ADDRESS2": 35, "CITY": "Padrón", "ZIP": 17 }, "geometry": { "type": "Point", "coordinates": [ -8.65820604948949, 42.738583948550243 ] } },
{ "type": "Feature", "properties": { "NAME": "Secuoia Vermella do Castelo de Soutomaior", "TEL": 535699.785180, "URL": "Soutomaior (San Salvador)", "ADRESS1": "Castelo de Soutomaior", "ADDRESS2": 42, "CITY": "Soutomaior", "ZIP": 12 }, "geometry": { "type": "Point", "coordinates": [ -8.566695835858132, 42.329046711701743 ] } },
{ "type": "Feature", "properties": { "NAME": "Secuoia Xigante do Pazo do Casal", "TEL": 560745.589450, "URL": "Santa Marta de Babío (Santa Marta)", "ADRESS1": "Pazo de O Casal", "ADDRESS2": 30, "CITY": "Bergondo", "ZIP": 24 }, "geometry": { "type": "Point", "coordinates": [ -8.250960562072009, 43.30965705263165 ] } },
{ "type": "Feature", "properties": { "NAME": "Taxodios do Xardín de Artime", "TEL": 519161.775260, "URL": "Vilagarcía (Santa Baia)", "ADRESS1": "Xardín de Artime", "ADDRESS2": 33, "CITY": "Vilagarcía de Arousa", "ZIP": 14 }, "geometry": { "type": "Point", "coordinates": [ -8.766395644374573, 42.606463358558948 ] } },
{ "type": "Feature", "properties": { "NAME": "Teixo do Pazo de Baldomir", "TEL": 558823.594370, "URL": "Guísamo (Santa María)", "ADRESS1": "Pazo de Baldomir", "ADDRESS2": 17, "CITY": "Bergondo", "ZIP": 22 }, "geometry": { "type": "Point", "coordinates": [ -8.274807442992577, 43.297267119502656 ] } },
{ "type": "Feature", "properties": { "NAME": "Teixo da Igrexa de Córneas", "TEL": 652166.839880, "URL": "Córneas (Santiago)", "ADRESS1": "Cemiterio", "ADDRESS2": 12, "CITY": "Baleira", "ZIP": 17 }, "geometry": { "type": "Point", "coordinates": [ -7.133750304917405, 42.979743456379438 ] } },
{ "type": "Feature", "properties": { "NAME": "Teixo da Casa de Tenreiro", "TEL": 567959.558270, "URL": "Pontedeume (Santiago)", "ADRESS1": "Casa de Tenreiro-Pontedeume", "ADDRESS2": 11, "CITY": "Pontedeume", "ZIP": 22 }, "geometry": { "type": "Point", "coordinates": [ -8.160710541946504, 43.403804252643248 ] } },
{ "type": "Feature", "properties": { "NAME": "Tuia Xigante do Pazo de Torres de Agrelo", "TEL": 532954.742660, "URL": "Reboreda (Santa María)", "ADRESS1": "Pazo de Torres de Agrelo", "ADDRESS2": 18, "CITY": "Redondela", "ZIP": 18 }, "geometry": { "type": "Point", "coordinates": [ -8.60024630870948, 42.29227895335881 ] } },
{ "type": "Feature", "properties": { "NAME": "Tileiro Prateado da Alameda do Campo da Estrela", "TEL": 536886.945810, "URL": "Santiago de Compostela", "ADRESS1": "Alameda do campo da estrela", "ADDRESS2": 25, "CITY": "Santiago de Compostela", "ZIP": 18 }, "geometry": { "type": "Point", "coordinates": [ -8.548347507251336, 42.876797472556831 ] } },
{ "type": "Feature", "properties": { "NAME": "Washingtonias Robustas do Pazo de Santa Cruz", "TEL": 546998.172000, "URL": "Santa Cruz de Ribadulla (Santa Cruz)", "ADRESS1": "Xardín do Pazo de Santa Cruz de Ribadulla", "ADDRESS2": 27, "CITY": "Vedra", "ZIP": 2 }, "geometry": { "type": "Point", "coordinates": [ -8.425531464458503, 42.770189599864587 ] } },
{ "type": "Feature", "properties": { "NAME": "Abeto branco de Carballal", "TEL": 543192.079260, "URL": "Arca (San Miguel)", "ADRESS1": "Carballal", "ADDRESS2": 30, "CITY": "A Estrada", "ZIP": 0 }, "geometry": { "type": "Point", "coordinates": [ -8.473274776317208, 42.625924211581292 ] } },
{ "type": "Feature", "properties": { "NAME": "Araucaria de Carballeira", "TEL": 529334.768760, "URL": "Salcedo (San Martiño)", "ADRESS1": "Carballeira", "ADDRESS2": 25, "CITY": "Pontevedra", "ZIP": 11 }, "geometry": { "type": "Point", "coordinates": [ -8.643522257138663, 42.404882068891894 ] } },
{ "type": "Feature", "properties": { "NAME": "Araucaria excelsa do Pazo de Rubiáns", "TEL": 521841.788200, "URL": "Rubiáns (Santa María)", "ADRESS1": "Pazo de Rubiáns", "ADDRESS2": 33, "CITY": "Vilagarcía de Arousa", "ZIP": 13 }, "geometry": { "type": "Point", "coordinates": [ -8.733841728782487, 42.578609421524924 ] } },
{ "type": "Feature", "properties": { "NAME": "Castiñeiro de Pexeiroos", "TEL": 604476.121990, "URL": "Guntín (Santa María)", "ADRESS1": "Pexeiroos", "ADDRESS2": 14, "CITY": "Os Blancos", "ZIP": 16 }, "geometry": { "type": "Point", "coordinates": [ -7.738992774517199, 41.974553307920992 ] } },
{ "type": "Feature", "properties": { "NAME": "Castiñeiro de Cerdedelo", "TEL": 632589.376370, "URL": "Trez (Santiago)", "ADRESS1": "Souto de Cerdedelo", "ADDRESS2": 28, "CITY": "Laza", "ZIP": 24 }, "geometry": { "type": "Point", "coordinates": [ -7.396970129670174, 42.082459492526702 ] } },
{ "type": "Feature", "properties": { "NAME": "Castiñeiro de Tambolosríos", "TEL": 619027.243280, "URL": "Chandrexa (Santa María)", "ADRESS1": "Trambolosríos", "ADDRESS2": 16, "CITY": "Parada de Sil", "ZIP": 16 }, "geometry": { "type": "Point", "coordinates": [ -7.554400574524434, 42.369468303465837 ] } },
{ "type": "Feature", "properties": { "NAME": "Castiñeiro de Santa Eufemia", "TEL": 606728.161490, "URL": "Ambía (Santo Estevo)", "ADRESS1": "Santa Eufemia", "ADDRESS2": 13, "CITY": "Baños de Molgas", "ZIP": 14 }, "geometry": { "type": "Point", "coordinates": [ -7.706760508255813, 42.223588899003914 ] } },
{ "type": "Feature", "properties": { "NAME": "Castiñeiro de Cádavos", "TEL": 665217.606620, "URL": "Cádavos (Santa María Madanela)", "ADRESS1": "Cádavos", "ADDRESS2": 18, "CITY": "A Mezquita", "ZIP": 20 }, "geometry": { "type": "Point", "coordinates": [ -7.005869148205168, 41.974911916198792 ] } },
{ "type": "Feature", "properties": { "NAME": "Castiñeiro do Prado da Ponte", "TEL": 664931.607040, "URL": "Cádavos (Santa María Madanela)", "ADRESS1": "Prado da Ponte", "ADDRESS2": 19, "CITY": "A Mezquita", "ZIP": 18 }, "geometry": { "type": "Point", "coordinates": [ -7.009393374854411, 41.972586461475963 ] } },
{ "type": "Feature", "properties": { "NAME": "Castiñeiro de Placín", "TEL": 648274.419840, "URL": "Placín (Santiago)", "ADRESS1": "Placín-Cubeiros", "ADDRESS2": 13, "CITY": "Manzaneda", "ZIP": 18 }, "geometry": { "type": "Point", "coordinates": [ -7.201547745771813, 42.287134178655933 ] } },
{ "type": "Feature", "properties": { "NAME": "Avelaira do Pazo de Lourizán", "TEL": 527552.757280, "URL": "Lourizán (Santo André)", "ADRESS1": "Pazo de Lourizán", "ADDRESS2": 10, "CITY": "Pontevedra", "ZIP": 11 }, "geometry": { "type": "Point", "coordinates": [ -8.665150885810446, 42.409855658354928 ] } },
{ "type": "Feature", "properties": { "NAME": "Criptomeria xaponesa do Pazo de Lourizán", "TEL": 527496.754710, "URL": "Lourizán (Santo André)", "ADRESS1": "Pazo de Lourizán", "ADDRESS2": 35, "CITY": "Pontevedra", "ZIP": 10 }, "geometry": { "type": "Point", "coordinates": [ -8.665847535690917, 42.406831642040785 ] } },
{ "type": "Feature", "properties": { "NAME": "Dicksonia do Pazo de Santa Cruz de Rivadulla", "TEL": 546907.170400, "URL": "Santa Cruz de Ribadulla (Santa Cruz)", "ADRESS1": "Ortigueira", "ADDRESS2": 5, "CITY": "Vedra", "ZIP": 4 }, "geometry": { "type": "Point", "coordinates": [ -8.42663186376573, 42.771482911671697 ] } },
{ "type": "Feature", "properties": { "NAME": "Freixo de folla estreita de Albarín", "TEL": 533001.803510, "URL": "Atios (Santa Eulalia)", "ADRESS1": "Albarín", "ADDRESS2": 28, "CITY": "O Porriño", "ZIP": 24 }, "geometry": { "type": "Point", "coordinates": [ -8.600563697246905, 42.151510305803235 ] } },
{ "type": "Feature", "properties": { "NAME": "Ginkgo de Vilaboa", "TEL": 550208.622800, "URL": "Rutis (Santa María)", "ADRESS1": "Vilaboa", "ADDRESS2": 19, "CITY": "Culleredo", "ZIP": 20 }, "geometry": { "type": "Point", "coordinates": [ -8.380878248390172, 43.310721759396806 ] } },
{ "type": "Feature", "properties": { "NAME": "Nogueira de Licín", "TEL": 611396.255390, "URL": "Licín (Santalla)", "ADRESS1": "Licín", "ADDRESS2": 13, "CITY": "O Saviñao", "ZIP": 14 }, "geometry": { "type": "Point", "coordinates": [ -7.642712437692769, 42.571818851696378 ] } },
{ "type": "Feature", "properties": { "NAME": "Magnolia de Oural", "TEL": 552904.211980, "URL": "Oural (Santa María)", "ADRESS1": "Oural", "ADDRESS2": 22, "CITY": "Boqueixón", "ZIP": 25 }, "geometry": { "type": "Point", "coordinates": [ -8.35311726129699, 42.791677842308651 ] } },
{ "type": "Feature", "properties": { "NAME": "Metrosideros da Finca de Besada", "TEL": 527653.773390, "URL": "Poio (San Salvador)", "ADRESS1": "Finca de Besada", "ADDRESS2": 16, "CITY": "Poio", "ZIP": 10 }, "geometry": { "type": "Point", "coordinates": [ -8.663806267154431, 42.43175451400829 ] } },
{ "type": "Feature", "properties": { "NAME": "Moreira negra de Cangas de Foz", "TEL": 634359.955650, "URL": "Cangas (San Pedro)", "ADRESS1": "Cangas de Foz", "ADDRESS2": 9, "CITY": "Cangas de Foz", "ZIP": 11 }, "geometry": { "type": "Point", "coordinates": [ -7.334494826603821, 43.629278145360729 ] } },
{ "type": "Feature", "properties": { "NAME": "Piñeiro de Alxán", "TEL": 539872.929500, "URL": "Nogueira (San Salvador)", "ADRESS1": "Alxan", "ADDRESS2": 42, "CITY": "Salvaterra de Miño", "ZIP": 18 }, "geometry": { "type": "Point", "coordinates": [ -8.517689661816222, 42.113265929155091 ] } },
{ "type": "Feature", "properties": { "NAME": "Carballo da Portela", "TEL": 548664.893540, "URL": "Sabaxáns (San Mamede)", "ADRESS1": "Portela", "ADDRESS2": 36, "CITY": "Mondariz", "ZIP": 28 }, "geometry": { "type": "Point", "coordinates": [ -8.410011292873362, 42.256415156966689 ] } },
{ "type": "Feature", "properties": { "NAME": "Carballo de Portacal", "TEL": 581213.050360, "URL": "Cumbraos (San Xiao)", "ADRESS1": "Cumbrados", "ADDRESS2": 19, "CITY": "Sobrado dos Monxes", "ZIP": 6 }, "geometry": { "type": "Point", "coordinates": [ -8.002698001485415, 43.057375826930873 ] } },
{ "type": "Feature", "properties": { "NAME": "Carballo de Freán", "TEL": 598388.945470, "URL": "Cazás (San Xulián)", "ADRESS1": "Freán", "ADDRESS2": 20, "CITY": "Xermade", "ZIP": 28 }, "geometry": { "type": "Point", "coordinates": [ -7.786537058557149, 43.322503287899849 ] } },
{ "type": "Feature", "properties": { "NAME": "Carballo de Vilatuxe", "TEL": 566526.176450, "URL": "Vilatuxe (San Lourenzo)", "ADRESS1": "Vilatuxe", "ADDRESS2": 24, "CITY": "Lalín", "ZIP": 23 }, "geometry": { "type": "Point", "coordinates": [ -8.188866839353034, 42.614456652831215 ] } },
{ "type": "Feature", "properties": { "NAME": "Carballo de Soutolongo", "TEL": 570246.170810, "URL": "Soutolongo (Santa María)", "ADRESS1": "Soutolongo", "ADDRESS2": 26, "CITY": "Lalín", "ZIP": 22 }, "geometry": { "type": "Point", "coordinates": [ -8.143419859944606, 42.621060590685467 ] } },
{ "type": "Feature", "properties": { "NAME": "Pai dos Rebolos", "TEL": 659728.573210, "URL": "Vilardemilo (Santa María Madanela)", "ADRESS1": "Houmoso-Dradela", "ADDRESS2": 24, "CITY": "Viana do Bolo", "ZIP": 17 }, "geometry": { "type": "Point", "coordinates": [ -7.067771070664175, 42.118456210211548 ] } },
{ "type": "Feature", "properties": { "NAME": "Carballo de Luxís", "TEL": 631800.375370, "URL": "Pacios (San Salvador)", "ADRESS1": "Pacios", "ADDRESS2": 22, "CITY": "Castro de Rei", "ZIP": 32 }, "geometry": { "type": "Point", "coordinates": [ -7.376351107207753, 43.251793643529389 ] } },
{ "type": "Feature", "properties": { "NAME": "Carballo de Cabanavella-I", "TEL": 671920.018220, "URL": "Cereixedo (Santiago)", "ADRESS1": "Cabanavella", "ADDRESS2": 25, "CITY": "Cervantes", "ZIP": 0 }, "geometry": { "type": "Point", "coordinates": [ -6.897115195092693, 42.814638283391041 ] } },
{ "type": "Feature", "properties": { "NAME": "Carballo de Cabanavella-II", "TEL": 671512.013980, "URL": "Cereixedo (Santiago)", "ADRESS1": "Cabanavella", "ADDRESS2": 23, "CITY": "Cervantes", "ZIP": 0 }, "geometry": { "type": "Point", "coordinates": [ -6.90215487956902, 42.813181898969106 ] } },
{ "type": "Feature", "properties": { "NAME": "Sobreira de Loña", "TEL": 594125.091140, "URL": "Ourense", "ADRESS1": "Igrexa do Santo Cristo de Lonia", "ADDRESS2": 21, "CITY": "Ourense", "ZIP": 23 }, "geometry": { "type": "Point", "coordinates": [ -7.857238869754894, 42.3472293241595 ] } },
{ "type": "Feature", "properties": { "NAME": "Sobreira de Siador", "TEL": 562190.211930, "URL": "Siador (San Miguel)", "ADRESS1": "A Saleta", "ADDRESS2": 15, "CITY": "Silleda", "ZIP": 22 }, "geometry": { "type": "Point", "coordinates": [ -8.240940359542861, 42.679734912622564 ] } },
{ "type": "Feature", "properties": { "NAME": "Salgueiro da braña de Xafardán", "TEL": 517016.752930, "URL": "Tremoedo (Santo Estevo)", "ADRESS1": "Deiro", "ADDRESS2": 14, "CITY": "Vilanova de Arousa", "ZIP": 19 }, "geometry": { "type": "Point", "coordinates": [ -8.792754268039568, 42.543581508538693 ] } },
{ "type": "Feature", "properties": { "NAME": "Secuoia vermella do Paxo de Lourizán", "TEL": 527524.755490, "URL": "Lourizán (Santo André)", "ADRESS1": "Pazo de Lourizán", "ADDRESS2": 43, "CITY": "Pontevedra", "ZIP": 11 }, "geometry": { "type": "Point", "coordinates": [ -8.665503101101825, 42.407614167908378 ] } },
{ "type": "Feature", "properties": { "NAME": "Sófora xaponesa do Pazo de Lourizán", "TEL": 527518.757160, "URL": "Lourizán (Santo André)", "ADRESS1": "Pazo de Lourizán", "ADDRESS2": 7, "CITY": "Pontevedra", "ZIP": 7 }, "geometry": { "type": "Point", "coordinates": [ -8.665562839106467, 42.410091020426364 ] } },
{ "type": "Feature", "properties": { "NAME": "Teixo de Cereixido", "TEL": 653443.485870, "URL": "Cereixido (Santa María)", "ADRESS1": "Cereixido", "ADDRESS2": 14, "CITY": "Quiroga", "ZIP": 0 }, "geometry": { "type": "Point", "coordinates": [ -7.133781992300901, 42.458600223265051 ] } },
{ "type": "Feature", "properties": { "NAME": "Teixo de Carballido", "TEL": 650949.694240, "URL": "Carballido (Santa María)", "ADRESS1": "Carballido", "ADDRESS2": 15, "CITY": "A Fonsagrada", "ZIP": 17 }, "geometry": { "type": "Point", "coordinates": [ -7.141054473991063, 43.23210285961548 ] } },
{ "type": "Feature", "properties": { "NAME": "Teixo de Fontaneira", "TEL": 648479.792990, "URL": "A Fontaneira (Santiago)", "ADRESS1": "Fontaneira", "ADDRESS2": 15, "CITY": "Baleira", "ZIP": 18 }, "geometry": { "type": "Point", "coordinates": [ -7.177560883701783, 43.027383401133825 ] } },
{ "type": "Feature", "properties": { "NAME": "Teixo de Balmonte", "TEL": 630235.431490, "URL": "Balmonte (San Salvador)", "ADRESS1": "Balmonte", "ADDRESS2": 18, "CITY": "Castro de Rei", "ZIP": 19 }, "geometry": { "type": "Point", "coordinates": [ -7.397795901828059, 43.169100731206925 ] } },
{ "type": "Feature", "properties": { "NAME": "Cedro atlántico do Pazo do Hórreo", "TEL": 537203.000000, "URL": "Santiago de Compostela", "ADRESS1": "Pazo do Hórreo", "ADDRESS2": 21, "CITY": "Santiago de Compostela", "ZIP": 25 }, "geometry": { "type": "Point", "coordinates": [ -8.544509470293125, 42.872473803011545 ] } }
]
}
